CCSDS_OMM_VERS = 2.0
CREATION_DATE  = 
ORIGINATOR     = 

OBJECT_NAME    = STARLINK-35307
OBJECT_ID      = 2025-232J
CENTER_NAME    = EARTH
REF_FRAME      = TEME
TIME_SYSTEM    = UTC
MEAN_ELEMENT_THEORY = SGP/SGP4

EPOCH          = 2025-11-08T12:00:00.998784
MEAN_MOTION    = 15.39564930
ECCENTRICITY   = .0001572
INCLINATION    = 53.1601
RA_OF_ASC_NODE = 308.9561
ARG_OF_PERICENTER = 84.0081
MEAN_ANOMALY   = 176.3625

EPHEMERIS_TYPE = 0
CLASSIFICATION_TYPE = U
NORAD_CAT_ID   = 66013
ELEMENT_SET_NO = 999
REV_AT_EPOCH   = 397
BSTAR          = .17776E-2
MEAN_MOTION_DOT = .71242E-3
MEAN_MOTION_DDOT = 0

CCSDS_OMM_VERS = 2.0
CREATION_DATE  = 
ORIGINATOR     = 

OBJECT_NAME    = STARLINK-35395
OBJECT_ID      = 2025-232K
CENTER_NAME    = EARTH
REF_FRAME      = TEME
TIME_SYSTEM    = UTC
MEAN_ELEMENT_THEORY = SGP/SGP4

EPOCH          = 2025-11-08T12:00:00.998784
MEAN_MOTION    = 15.43681794
ECCENTRICITY   = .0001289
INCLINATION    = 53.1594
RA_OF_ASC_NODE = 308.8669
ARG_OF_PERICENTER = 80.8142
MEAN_ANOMALY   = 224.4216

EPHEMERIS_TYPE = 0
CLASSIFICATION_TYPE = U
NORAD_CAT_ID   = 66014
ELEMENT_SET_NO = 999
REV_AT_EPOCH   = 403
BSTAR          = -.49774E-1
MEAN_MOTION_DOT = -.2029242E-1
MEAN_MOTION_DDOT = 0

CCSDS_OMM_VERS = 2.0
CREATION_DATE  = 
ORIGINATOR     = 

OBJECT_NAME    = STARLINK-34622
OBJECT_ID      = 2025-232L
CENTER_NAME    = EARTH
REF_FRAME      = TEME
TIME_SYSTEM    = UTC
MEAN_ELEMENT_THEORY = SGP/SGP4

EPOCH          = 2025-11-08T07:30:16.904160
MEAN_MOTION    = 15.49331855
ECCENTRICITY   = .00015616
INCLINATION    = 53.1593
RA_OF_ASC_NODE = 309.7204
ARG_OF_PERICENTER = 89.4795
MEAN_ANOMALY   = 270.6393

EPHEMERIS_TYPE = 0
CLASSIFICATION_TYPE = U
NORAD_CAT_ID   = 66015
ELEMENT_SET_NO = 999
REV_AT_EPOCH   = 481
BSTAR          = .16323119E-2
MEAN_MOTION_DOT = .91478E-3
MEAN_MOTION_DDOT = 0

CCSDS_OMM_VERS = 2.0
CREATION_DATE  = 
ORIGINATOR     = 

OBJECT_NAME    = STARLINK-35243
OBJECT_ID      = 2025-232M
CENTER_NAME    = EARTH
REF_FRAME      = TEME
TIME_SYSTEM    = UTC
MEAN_ELEMENT_THEORY = SGP/SGP4

EPOCH          = 2025-11-08T07:30:46.573056
MEAN_MOTION    = 15.49339149
ECCENTRICITY   = .0001596
INCLINATION    = 53.1591
RA_OF_ASC_NODE = 309.7226
ARG_OF_PERICENTER = 81.0318
MEAN_ANOMALY   = 279.0871

EPHEMERIS_TYPE = 0
CLASSIFICATION_TYPE = U
NORAD_CAT_ID   = 66016
ELEMENT_SET_NO = 999
REV_AT_EPOCH   = 482
BSTAR          = .18654E-2
MEAN_MOTION_DOT = .104813E-2
MEAN_MOTION_DDOT = 0

CCSDS_OMM_VERS = 2.0
CREATION_DATE  = 
ORIGINATOR     = 

OBJECT_NAME    = STARLINK-35398
OBJECT_ID      = 2025-232N
CENTER_NAME    = EARTH
REF_FRAME      = TEME
TIME_SYSTEM    = UTC
MEAN_ELEMENT_THEORY = SGP/SGP4

EPOCH          = 2025-11-08T12:00:00.998784
MEAN_MOTION    = 15.39573034
ECCENTRICITY   = .0002072
INCLINATION    = 53.1602
RA_OF_ASC_NODE = 308.9588
ARG_OF_PERICENTER = 63.2800
MEAN_ANOMALY   = 195.2213

EPHEMERIS_TYPE = 0
CLASSIFICATION_TYPE = U
NORAD_CAT_ID   = 66017
ELEMENT_SET_NO = 999
REV_AT_EPOCH   = 396
BSTAR          = .17174E-2
MEAN_MOTION_DOT = .68811E-3
MEAN_MOTION_DDOT = 0

CCSDS_OMM_VERS = 2.0
CREATION_DATE  = 
ORIGINATOR     = 

OBJECT_NAME    = STARLINK-35376
OBJECT_ID      = 2025-232P
CENTER_NAME    = EARTH
REF_FRAME      = TEME
TIME_SYSTEM    = UTC
MEAN_ELEMENT_THEORY = SGP/SGP4

EPOCH          = 2025-11-08T07:29:47.230944
MEAN_MOTION    = 15.49329902
ECCENTRICITY   = .00017481
INCLINATION    = 53.1593
RA_OF_ASC_NODE = 309.7183
ARG_OF_PERICENTER = 76.0969
MEAN_ANOMALY   = 284.0234

EPHEMERIS_TYPE = 0
CLASSIFICATION_TYPE = U
NORAD_CAT_ID   = 66018
ELEMENT_SET_NO = 999
REV_AT_EPOCH   = 482
BSTAR          = .14850752E-2
MEAN_MOTION_DOT = .83091E-3
MEAN_MOTION_DDOT = 0

CCSDS_OMM_VERS = 2.0
CREATION_DATE  = 
ORIGINATOR     = 

OBJECT_NAME    = STARLINK-35382
OBJECT_ID      = 2025-232Q
CENTER_NAME    = EARTH
REF_FRAME      = TEME
TIME_SYSTEM    = UTC
MEAN_ELEMENT_THEORY = SGP/SGP4

EPOCH          = 2025-11-08T05:58:22.880352
MEAN_MOTION    = 15.49300246
ECCENTRICITY   = .00017999
INCLINATION    = 53.1593
RA_OF_ASC_NODE = 310.0329
ARG_OF_PERICENTER = 73.3093
MEAN_ANOMALY   = 286.8114

EPHEMERIS_TYPE = 0
CLASSIFICATION_TYPE = U
NORAD_CAT_ID   = 66019
ELEMENT_SET_NO = 999
REV_AT_EPOCH   = 481
BSTAR          = .96704901E-3
MEAN_MOTION_DOT = .5369E-3
MEAN_MOTION_DDOT = 0

CCSDS_OMM_VERS = 2.0
CREATION_DATE  = 
ORIGINATOR     = 

OBJECT_NAME    = STARLINK-35430
OBJECT_ID      = 2025-232R
CENTER_NAME    = EARTH
REF_FRAME      = TEME
TIME_SYSTEM    = UTC
MEAN_ELEMENT_THEORY = SGP/SGP4

EPOCH          = 2025-11-08T12:00:00.998784
MEAN_MOTION    = 15.41763133
ECCENTRICITY   = .000107
INCLINATION    = 53.1592
RA_OF_ASC_NODE = 308.8582
ARG_OF_PERICENTER = 91.2746
MEAN_ANOMALY   = 217.3024

EPHEMERIS_TYPE = 0
CLASSIFICATION_TYPE = U
NORAD_CAT_ID   = 66020
ELEMENT_SET_NO = 999
REV_AT_EPOCH   = 403
BSTAR          = -.6761E-1
MEAN_MOTION_DOT = -.2559328E-1
MEAN_MOTION_DDOT = 0

CCSDS_OMM_VERS = 2.0
CREATION_DATE  = 
ORIGINATOR     = 

OBJECT_NAME    = STARLINK-35432
OBJECT_ID      = 2025-232S
CENTER_NAME    = EARTH
REF_FRAME      = TEME
TIME_SYSTEM    = UTC
MEAN_ELEMENT_THEORY = SGP/SGP4

EPOCH          = 2025-11-08T12:00:00.998784
MEAN_MOTION    = 15.39572004
ECCENTRICITY   = .0001257
INCLINATION    = 53.1596
RA_OF_ASC_NODE = 308.9075
ARG_OF_PERICENTER = 62.7668
MEAN_ANOMALY   = 221.4822

EPHEMERIS_TYPE = 0
CLASSIFICATION_TYPE = U
NORAD_CAT_ID   = 66021
ELEMENT_SET_NO = 999
REV_AT_EPOCH   = 396
BSTAR          = .16789E-2
MEAN_MOTION_DOT = .67242E-3
MEAN_MOTION_DDOT = 0

CCSDS_OMM_VERS = 2.0
CREATION_DATE  = 
ORIGINATOR     = 

OBJECT_NAME    = STARLINK-35340
OBJECT_ID      = 2025-232T
CENTER_NAME    = EARTH
REF_FRAME      = TEME
TIME_SYSTEM    = UTC
MEAN_ELEMENT_THEORY = SGP/SGP4

EPOCH          = 2025-11-08T12:00:00.998784
MEAN_MOTION    = 15.44533847
ECCENTRICITY   = .0001266
INCLINATION    = 53.1592
RA_OF_ASC_NODE = 308.8230
ARG_OF_PERICENTER = 90.6248
MEAN_ANOMALY   = 235.4171

EPHEMERIS_TYPE = 0
CLASSIFICATION_TYPE = U
NORAD_CAT_ID   = 66022
ELEMENT_SET_NO = 999
REV_AT_EPOCH   = 403
BSTAR          = -.4794E-1
MEAN_MOTION_DOT = -.2014174E-1
MEAN_MOTION_DDOT = 0

CCSDS_OMM_VERS = 2.0
CREATION_DATE  = 
ORIGINATOR     = 

OBJECT_NAME    = STARLINK-35394
OBJECT_ID      = 2025-232U
CENTER_NAME    = EARTH
REF_FRAME      = TEME
TIME_SYSTEM    = UTC
MEAN_ELEMENT_THEORY = SGP/SGP4

EPOCH          = 2025-11-08T10:33:19.528704
MEAN_MOTION    = 15.48510199
ECCENTRICITY   = .0000737
INCLINATION    = 53.1589
RA_OF_ASC_NODE = 309.0893
ARG_OF_PERICENTER = 110.9860
MEAN_ANOMALY   = 249.1227

EPHEMERIS_TYPE = 0
CLASSIFICATION_TYPE = U
NORAD_CAT_ID   = 66023
ELEMENT_SET_NO = 999
REV_AT_EPOCH   = 484
BSTAR          = -.64467E-2
MEAN_MOTION_DOT = -.334518E-2
MEAN_MOTION_DDOT = 0

CCSDS_OMM_VERS = 2.0
CREATION_DATE  = 
ORIGINATOR     = 

OBJECT_NAME    = STARLINK-35410
OBJECT_ID      = 2025-232V
CENTER_NAME    = EARTH
REF_FRAME      = TEME
TIME_SYSTEM    = UTC
MEAN_ELEMENT_THEORY = SGP/SGP4

EPOCH          = 2025-11-08T07:26:19.446720
MEAN_MOTION    = 15.49329920
ECCENTRICITY   = .00015535
INCLINATION    = 53.1591
RA_OF_ASC_NODE = 309.7004
ARG_OF_PERICENTER = 80.3352
MEAN_ANOMALY   = 279.7832

EPHEMERIS_TYPE = 0
CLASSIFICATION_TYPE = U
NORAD_CAT_ID   = 66024
ELEMENT_SET_NO = 999
REV_AT_EPOCH   = 482
BSTAR          = .19487399E-2
MEAN_MOTION_DOT = .109546E-2
MEAN_MOTION_DDOT = 0

CCSDS_OMM_VERS = 2.0
CREATION_DATE  = 
ORIGINATOR     = 

OBJECT_NAME    = STARLINK-35280
OBJECT_ID      = 2025-232W
CENTER_NAME    = EARTH
REF_FRAME      = TEME
TIME_SYSTEM    = UTC
MEAN_ELEMENT_THEORY = SGP/SGP4

EPOCH          = 2025-11-08T04:21:02.592000
MEAN_MOTION    = 15.49362413
ECCENTRICITY   = .00022228
INCLINATION    = 53.1591
RA_OF_ASC_NODE = 310.3199
ARG_OF_PERICENTER = 86.4125
MEAN_ANOMALY   = 273.7138

EPHEMERIS_TYPE = 0
CLASSIFICATION_TYPE = U
NORAD_CAT_ID   = 66025
ELEMENT_SET_NO = 999
REV_AT_EPOCH   = 480
BSTAR          = .14748531E-2
MEAN_MOTION_DOT = .82607E-3
MEAN_MOTION_DDOT = 0

CCSDS_OMM_VERS = 2.0
CREATION_DATE  = 
ORIGINATOR     = 

OBJECT_NAME    = STARLINK-34812
OBJECT_ID      = 2025-232X
CENTER_NAME    = EARTH
REF_FRAME      = TEME
TIME_SYSTEM    = UTC
MEAN_ELEMENT_THEORY = SGP/SGP4

EPOCH          = 2025-11-08T07:25:49.872000
MEAN_MOTION    = 15.49310768
ECCENTRICITY   = .00018351
INCLINATION    = 53.1592
RA_OF_ASC_NODE = 309.6990
ARG_OF_PERICENTER = 70.4677
MEAN_ANOMALY   = 289.6530

EPHEMERIS_TYPE = 0
CLASSIFICATION_TYPE = U
NORAD_CAT_ID   = 66026
ELEMENT_SET_NO = 999
REV_AT_EPOCH   = 481
BSTAR          = .17831814E-2
MEAN_MOTION_DOT = .100011E-2
MEAN_MOTION_DDOT = 0

CCSDS_OMM_VERS = 2.0
CREATION_DATE  = 
ORIGINATOR     = 

OBJECT_NAME    = STARLINK-35341
OBJECT_ID      = 2025-232Y
CENTER_NAME    = EARTH
REF_FRAME      = TEME
TIME_SYSTEM    = UTC
MEAN_ELEMENT_THEORY = SGP/SGP4

EPOCH          = 2025-11-08T12:00:00.998784
MEAN_MOTION    = 15.45795359
ECCENTRICITY   = .0001346
INCLINATION    = 53.1597
RA_OF_ASC_NODE = 308.4704
ARG_OF_PERICENTER = 59.2847
MEAN_ANOMALY   = 81.3164

EPHEMERIS_TYPE = 0
CLASSIFICATION_TYPE = U
NORAD_CAT_ID   = 66027
ELEMENT_SET_NO = 999
REV_AT_EPOCH   = 403
BSTAR          = -.45331E-1
MEAN_MOTION_DOT = -.1991971E-1
MEAN_MOTION_DDOT = 0

